OBJECT_NAME,OBJECT_ID,EPOCH,MEAN_MOTION,ECCENTRICITY,INCLINATION,RA_OF_ASC_NODE,ARG_OF_PERICENTER,MEAN_ANOMALY,EPHEMERIS_TYPE,CLASSIFICATION_TYPE,NORAD_CAT_ID,ELEMENT_SET_NO,REV_AT_EPOCH,BSTAR,MEAN_MOTION_DOT,MEAN_MOTION_DDOT
TRITON-1,2013-066M,2026-06-30T19:14:33.187200,14.81748697,.0089394,97.8244,91.2992,188.9658,170.9963,0,U,39427,999,67610,.17168E-3,.1393E-4,0
GOMX-1,2013-066Q,2026-06-30T19:18:16.449120,14.69505340,.012952,97.6472,21.4077,34.2848,326.6634,0,U,39430,999,67191,.25754E-3,.1686E-4,0
CUBEBUG-2 (LO-74),2013-066AA,2026-06-30T19:04:32.462688,14.93871723,.0056909,97.8910,130.8314,344.0423,15.9001,0,U,39440,999,67902,.43003E-3,.4655E-4,0
NEE-02 KRYSAOR,2013-066AB,2026-06-30T19:19:19.470144,14.86680801,.0066766,97.8896,120.9230,26.4051,334.0541,0,U,39441,999,67822,.27637E-3,.2498E-4,0
FUNCUBE-1 (AO-73),2013-066AE,2026-06-30T20:15:27.507168,15.09653397,.003714,97.8284,153.5766,154.4436,205.8639,0,U,39444,999,68172,.45304E-3,.7343E-4,0
UWE-3,2013-066AG,2026-06-30T20:24:53.143776,14.97126889,.0047038,97.8711,138.0184,274.5118,85.0730,0,U,39446,999,67962,.27807E-3,.3219E-4,0
SMDC ONE 2.4,2013-072H,2026-06-30T15:14:57.230304,15.18452903,.0146939,120.4922,44.0156,33.2579,327.7630,0,U,39469,999,11987,.45004E-3,.12041E-3,0
COSMOS 2488 (RODNIK-S 7),2013-076A,2026-06-30T21:11:39.960960,12.42906413,.0020861,82.4831,160.1619,67.1226,293.2053,0,U,39483,999,56759,.67644E-3,.104E-5,0
COSMOS 2489 (RODNIK-S 8),2013-076B,2026-06-30T20:36:22.324608,12.42880113,.0022691,82.4867,161.5603,66.9870,293.3599,0,U,39484,999,56764,.69744E-3,.107E-5,0
COSMOS 2490 (RODNIK-S 9),2013-076C,2026-06-30T21:51:50.259168,12.42879422,.0022891,82.4815,159.5892,81.6869,278.6805,0,U,39485,999,56758,.1312E-2,.192E-5,0
KAZEOSAT 1,2014-024A,2026-06-30T19:54:03.811392,14.42084369,.0001175,98.3209,253.9370,76.7731,283.3589,0,U,39731,999,64052,-.21182E-5,-.5E-6,0
COSMOS 2496 (RODNIK-S 10),2014-028A,2026-06-30T18:54:43.401312,12.42879015,.0021265,82.4462,100.2138,50.8535,309.4430,0,U,39761,999,54920,.39969E-3,.65E-6,0
COSMOS 2497 (RODNIK-S 11),2014-028B,2026-06-30T20:14:47.610240,12.42894690,.0021772,82.4510,101.8740,45.9486,314.3382,0,U,39762,999,54921,.28815E-3,.5E-6,0
COSMOS 2498 (RODNIK-S 12),2014-028C,2026-06-30T19:41:10.798368,12.42980704,.0022487,82.4470,100.3698,45.5670,314.7245,0,U,39763,999,54924,.68769E-3,.105E-5,0
HODOYOSHI-4,2014-033B,2026-06-30T19:38:09.290112,14.88160791,.0021921,97.5450,5.9831,260.3303,99.5438,0,U,40011,999,65083,.18125E-3,.1624E-4,0
UNISAT-6,2014-033C,2026-06-30T15:31:51.079008,14.88310097,.0045408,97.7891,334.1229,25.8668,334.4805,0,U,40012,999,64816,.28727E-3,.2651E-4,0
DEIMOS-2,2014-033D,2026-06-30T20:22:00.283296,14.93758646,.0000812,97.5812,55.8571,59.9648,300.1652,0,U,40013,999,63976,.1107E-3,.1118E-4,0
BUGSAT-1 (TITA),2014-033E,2026-06-30T20:01:25.919328,15.15735894,.0028973,98.0437,275.1823,132.5024,227.8662,0,U,40014,999,65790,.29949E-3,.5694E-4,0
SAUDISAT 4,2014-033G,2026-06-30T15:28:20.129088,14.79561163,.0045459,97.7599,327.3149,31.2549,329.1352,0,U,40016,999,64806,.84082E-4,.588E-5,0
APRIZESAT 9,2014-033J,2026-06-30T07:22:29.296992,14.74233565,.0066703,97.9077,314.1862,157.0375,203.3840,0,U,40018,999,64549,.12496568E-3,.803E-5,0
BRITE-CA1 (TORONTO),2014-033L,2026-06-30T08:31:01.000416,14.72697519,.00774864,97.9755,310.0412,234.1487,125.2508,0,U,40020,999,64415,.1483446E-3,.937E-5,0
